[{"OBJECT_NAME":"STARLINK-35604","OBJECT_ID":"2025-278M","EPOCH":"2026-03-09T11:18:15.253632","MEAN_MOTION":15.27595646,"ECCENTRICITY":0.00011141,"INCLINATION":42.9978,"RA_OF_ASC_NODE":115.7689,"ARG_OF_PERICENTER":265.1782,"MEAN_ANOMALY":94.8942,"EPHEMERIS_TYPE":0,"CLASSIFICATION_TYPE":"U","NORAD_CAT_ID":66802,"ELEMENT_SET_NO":999,"REV_AT_EPOCH":1517,"BSTAR":0.00098869913,"MEAN_MOTION_DOT":0.00027058,"MEAN_MOTION_DDOT":0},{"OBJECT_NAME":"COSMOS 1975","OBJECT_ID":"1988-093A","EPOCH":"2026-03-09T14:15:08.474112","MEAN_MOTION":15.28069249,"ECCENTRICITY":0.0012117,"INCLINATION":82.5181,"RA_OF_ASC_NODE":117.7814,"ARG_OF_PERICENTER":163.8427,"MEAN_ANOMALY":196.3201,"EPHEMERIS_TYPE":0,"CLASSIFICATION_TYPE":"U","NORAD_CAT_ID":19573,"ELEMENT_SET_NO":999,"REV_AT_EPOCH":1939,"BSTAR":0.0002787,"MEAN_MOTION_DOT":7.676e-5,"MEAN_MOTION_DDOT":0}]
